[{"OBJECT_NAME":"TRANSPORTER-11 OBJECT A","OBJECT_ID":"2024-149A","EPOCH":"2026-03-09T17:54:54.302112","MEAN_MOTION":15.31141332,"ECCENTRICITY":0.00031096,"INCLINATION":97.378,"RA_OF_ASC_NODE":149.0949,"ARG_OF_PERICENTER":191.001,"MEAN_ANOMALY":169.1164,"EPHEMERIS_TYPE":0,"CLASSIFICATION_TYPE":"U","NORAD_CAT_ID":60468,"ELEMENT_SET_NO":999,"REV_AT_EPOCH":8683,"BSTAR":0.00036053677,"MEAN_MOTION_DOT":0.00010774,"MEAN_MOTION_DDOT":0},{"OBJECT_NAME":"STARLINK-35505","OBJECT_ID":"2025-253L","EPOCH":"2026-03-09T10:08:53.129760","MEAN_MOTION":15.27569144,"ECCENTRICITY":0.00047721,"INCLINATION":42.9995,"RA_OF_ASC_NODE":214.0137,"ARG_OF_PERICENTER":296.1544,"MEAN_ANOMALY":63.8817,"EPHEMERIS_TYPE":0,"CLASSIFICATION_TYPE":"U","NORAD_CAT_ID":66329,"ELEMENT_SET_NO":999,"REV_AT_EPOCH":2020,"BSTAR":0.00089052353,"MEAN_MOTION_DOT":0.00024322,"MEAN_MOTION_DDOT":0}]
