TRANSPORTER-11 OBJECT A 
1 60468U 24149A   26068.74646182  .00010774  00000+0  36054-3 0  9993
2 60468  97.3780 149.0949 0003110 191.0010 169.1164 15.31141332 86830
STARLINK-35505          
1 66329U 25253L   26068.42283715  .00024322  00000+0  89052-3 0  9996
2 66329  42.9995 214.0137 0004772 296.1544  63.8817 15.27569144 20206
